[{"OBJECT_NAME":"MAROC-TUBSAT","OBJECT_ID":"2001-056D","EPOCH":"2026-03-09T22:30:04.167072","MEAN_MOTION":13.70257966,"ECCENTRICITY":0.00202743,"INCLINATION":99.801,"RA_OF_ASC_NODE":243.9412,"ARG_OF_PERICENTER":39.0163,"MEAN_ANOMALY":116.8621,"EPHEMERIS_TYPE":0,"CLASSIFICATION_TYPE":"U","NORAD_CAT_ID":27004,"ELEMENT_SET_NO":999,"REV_AT_EPOCH":21259,"BSTAR":2.5577729e-5,"MEAN_MOTION_DOT":-2.4e-7,"MEAN_MOTION_DDOT":0},{"OBJECT_NAME":"THORAD AGENA D DEB","OBJECT_ID":"1970-025BC","EPOCH":"2026-03-09T22:30:53.294976","MEAN_MOTION":13.68593145,"ECCENTRICITY":0.00179845,"INCLINATION":100.1842,"RA_OF_ASC_NODE":244.3411,"ARG_OF_PERICENTER":91.8628,"MEAN_ANOMALY":73.3356,"EPHEMERIS_TYPE":0,"CLASSIFICATION_TYPE":"U","NORAD_CAT_ID":4679,"ELEMENT_SET_NO":999,"REV_AT_EPOCH":77664,"BSTAR":0.00062481012,"MEAN_MOTION_DOT":4.88e-6,"MEAN_MOTION_DDOT":0}]
